[{"OBJECT_NAME":"STARLINK-31441","OBJECT_ID":"2024-117A","EPOCH":"2026-03-09T22:11:59.474688","MEAN_MOTION":15.30194429,"ECCENTRICITY":0.00012231,"INCLINATION":53.1617,"RA_OF_ASC_NODE":35.9495,"ARG_OF_PERICENTER":77.0731,"MEAN_ANOMALY":283.0406,"EPHEMERIS_TYPE":0,"CLASSIFICATION_TYPE":"U","NORAD_CAT_ID":60091,"ELEMENT_SET_NO":999,"REV_AT_EPOCH":9692,"BSTAR":3.5308859e-5,"MEAN_MOTION_DOT":6.87e-6,"MEAN_MOTION_DDOT":0},{"OBJECT_NAME":"FENGYUN 1C DEB","OBJECT_ID":"1999-025DNE","EPOCH":"2026-03-03T04:32:20.578848","MEAN_MOTION":15.05751159,"ECCENTRICITY":0.01321557,"INCLINATION":98.9662,"RA_OF_ASC_NODE":53.9178,"ARG_OF_PERICENTER":282.0758,"MEAN_ANOMALY":76.5683,"EPHEMERIS_TYPE":0,"CLASSIFICATION_TYPE":"U","NORAD_CAT_ID":35174,"ELEMENT_SET_NO":999,"REV_AT_EPOCH":91373,"BSTAR":0.0030573957,"MEAN_MOTION_DOT":0.00054187,"MEAN_MOTION_DDOT":0}]
